STARLINK-1073           
1 44914U 20001A   21357.56136158  .00000306  00000+0  39427-4 0  9995
2 44914  53.0539  47.0589 0001178  80.9867 279.1255 15.06403165108165
STARLINK-1084           
1 44915U 20001B   21357.52450817  .00000352  00000+0  42564-4 0  9990
2 44915  53.0542  47.2225 0001512  78.1778 281.9380 15.06389809108169
STARLINK-1098           
1 44917U 20001D   21357.52818695  .00000450  00000+0  49121-4 0  9999
2 44917  53.0548  47.2111 0001266  81.2205 278.8928 15.06399093108166
STARLINK-1099           
1 44918U 20001E   21357.60559420 -.00000657  00000+0 -25198-4 0  9996
2 44918  53.0560  46.8704 0001398  83.3202 276.7946 15.06401147108914
STARLINK-1102           
1 44920U 20001G   21357.55399539  .00003246  00000+0  23670-3 0  9993
2 44920  53.0547  47.0913 0001317  82.3075 277.8063 15.06404226108165
STARLINK-1103           
1 44921U 20001H   21357.64245426 -.00000980  00000+0 -46907-4 0  9992
2 44921  53.0499  46.7061 0001480  60.5286 299.5850 15.06392526108158
STARLINK-1104           
1 44922U 20001J   21357.47658958 -.00000988  00000+0 -47482-4 0  9999
2 44922  53.0544  47.4352 0001350  90.0900 270.0243 15.06395315108157
STARLINK-1106           
1 44923U 20001K   21357.63508265 -.00001117  00000+0 -56144-4 0  9993
2 44923  53.0543  46.7246 0001147  87.3161 272.7959 15.06395319108172
STARLINK-1111           
1 44924U 20001L   21357.49132848  .00000307  00000+0  39529-4 0  9994
2 44924  53.0547  47.3728 0001419  74.2494 285.8652 15.06399112108153
STARLINK-1112           
1 44925U 20001M   21357.43973065  .00008649  00000+0  59881-3 0  9992
2 44925  53.0543  47.5994 0001257  73.0170 287.0956 15.06401731108146
STARLINK-1113           
1 44926U 20001N   21357.48677273  .00000502  00000+0  53621-4 0  9997
2 44926  53.0005  47.3943 0001322  72.3646 287.7486 15.05590130108860
STARLINK-1114           
1 44927U 20001P   21357.51713141 -.00000795  00000+0 -34446-4 0  9997
2 44927  53.0542  47.2506 0001694  82.4376 277.6805 15.06397724108166
STARLINK-1119           
1 44928U 20001Q   21357.51344500  .00000968  00000+0  83891-4 0  9995
2 44928  53.0564  47.2844 0001215  77.1026 283.0099 15.06396551108161
STARLINK-1121           
1 44929U 20001R   21357.63138225  .00001192  00000+0  98891-4 0  9990
2 44929  53.0550  46.7357 0001217  79.7670 280.3456 15.06404106108179
STARLINK-1123           
1 44930U 20001S   21357.66455874  .00000912  00000+0  80104-4 0  9994
2 44930  53.0537  46.5968 0001437  76.0671 284.0478 15.06397309108189
STARLINK-1128           
1 44931U 20001T   21357.52330533  .00010977  00000+0  69515-3 0  9998
2 44931  53.0529  46.6669 0001574  60.6450 299.4697 15.09443825108918
STARLINK-1130 (DARKSAT) 
1 44932U 20001U   21357.52081668 -.00001213  00000+0 -62578-4 0  9999
2 44932  53.0542  47.2461 0001280  85.1634 274.9501 15.06395044109392
STARLINK-1144           
1 44933U 20001V   21357.61295530  .00003224  00000+0  23518-3 0  9997
2 44933  53.0549  46.8287 0001416  86.1835 273.9316 15.06410446109461
STARLINK-1071           
1 44934U 20001W   21357.49316830  .00000255  00000+0  36037-4 0  9993
2 44934  53.0556  27.3645 0001201  81.9176 278.1950 15.06402341108437
STARLINK-1079           
1 44937U 20001Z   21357.47106316 -.00000807  00000+0 -35287-4 0  9991
2 44937  53.0550  27.4681 0001450  70.9843 289.1303 15.06393734108439
STARLINK-1082           
1 44938U 20001AA  21357.57058082  .00001659  00000+0  13030-3 0  9994
2 44938  53.0547  27.0159 0001407  67.9378 292.1760 15.06390142108445
STARLINK-1083           
1 44939U 20001AB  21357.44525957  .00002228  00000+0  16847-3 0  9993
2 44939  53.0540  27.5834 0001528  70.4019 289.7135 15.06395071108421
STARLINK-1091           
1 44940U 20001AC  21357.58900947 -.00000838  00000+0 -37379-4 0  9997
2 44940  53.0555  26.9312 0001382  69.1245 290.9892 15.06397095108441
STARLINK-1094           
1 44941U 20001AD  21357.47843289 -.00000994  00000+0 -47869-4 0  9999
2 44941  53.0555  27.4291 0001511  65.0205 295.0941 15.06394262108432
STARLINK-1096           
1 44942U 20001AE  21357.46368973 -.00000217  00000+0  43079-5 0  9998
2 44942  53.0552  27.4989 0001399  65.7581 294.3554 15.06393010108434
STARLINK-1100           
1 44943U 20001AF  21357.50792159 -.00001585  00000+0 -87561-4 0  9994
2 44943  53.0553  27.3016 0001396  66.3243 293.7892 15.06392077108435
STARLINK-1108           
1 44944U 20001AG  21357.35679643  .00012263  00000+0  84083-3 0  9998
2 44944  53.0539  27.9751 0001572  61.6512 298.4636 15.06396333108410
STARLINK-1109           
1 44945U 20001AH  21357.51897808  .00001221  00000+0  10089-3 0  9999
2 44945  53.0544  27.2438 0001542  69.2096 290.9058 15.06390505108432
STARLINK-1110           
1 44946U 20001AJ  21357.50385095  .00012482  00000+0  79686-3 0  9998
2 44946  53.0051  22.2517 0001543  58.8773 301.2368 15.09024121108482
STARLINK-1116           
1 44947U 20001AK  21357.54109678  .00001555  00000+0  12331-3 0  9997
2 44947  53.0544  27.1415 0001629  74.9819 285.1350 15.06389772108446
STARLINK-1122           
1 44949U 20001AM  21357.50054863  .00003196  00000+0  23335-3 0  9999
2 44949  53.0536  27.3419 0001398  71.8144 288.2997 15.06396874108436
STARLINK-1125           
1 44950U 20001AN  21357.51529194 -.00001781  00000+0 -10073-3 0  9991
2 44950  53.0548  27.2667 0001416  76.5139 283.6008 15.06393035108430
STARLINK-1126           
1 44951U 20001AP  21357.50868724  .00012663  00000+0  81175-3 0  9996
2 44951  53.0043  22.8286 0001517  51.6671 308.4455 15.08859986109769
STARLINK-1117           
1 44952U 20001AQ  21357.48210898  .00000899  00000+0  79208-4 0  9990
2 44952  53.0556  27.4128 0001412  66.2953 293.8184 15.06406077108430
STARLINK-1124           
1 44953U 20001AR  21357.49959320  .00002665  00000+0  19771-3 0  9993
2 44953  53.0491  27.3510 0001540  78.2250 281.8912 15.06403264109722
STARLINK-1066           
1 44954U 20001AS  21357.51344415  .00000948  00000+0  82562-4 0  9991
2 44954  53.0547   7.2700 0001674  64.1674 295.9487 15.06400569108665
STARLINK-1069           
1 44955U 20001AT  21357.52081547  .00004573  00000+0  32565-3 0  9992
2 44955  53.0555   7.2506 0001574  59.7675 300.3470 15.06406204108664
STARLINK-1070           
1 44956U 20001AU  21357.45079240 -.00001987  00000+0 -11458-3 0  9998
2 44956  53.0548   7.5600 0001622  62.6507 297.4647 15.06386295108711
STARLINK-1074           
1 44957U 20001AV  21357.34389685  .00000593  00000+0  58690-4 0  9994
2 44957  53.0561   8.0419 0001544  61.3111 298.8033 15.06393423108693
STARLINK-1076           
1 44959U 20001AX  21357.49132183  .00002068  00000+0  15767-3 0  9997
2 44959  53.0545   7.3817 0001692  60.7189 299.3969 15.06402442108712
STARLINK-1080           
1 44961U 20001AZ  21357.29966035  .00001677  00000+0  13145-3 0  9992
2 44961  53.0555   8.2351 0001729  58.4257 301.6901 15.06402560108691
STARLINK-1085           
1 44963U 20001BB  21357.45003881  .00013553  00000+0  86302-3 0  9994
2 44963  53.0006   2.6765 0000633  69.9406 290.1651 15.09046343109496
STARLINK-1086           
1 44964U 20001BC  21357.46184444  .00001796  00000+0  13945-3 0  9990
2 44964  53.0541   7.5054 0001531  66.3619 293.7530 15.06400089108718
STARLINK-1088           
1 44966U 20001BE  21357.41760920  .00000279  00000+0  37644-4 0  9994
2 44966  53.0559   7.7021 0001425  63.4431 296.6704 15.06402121108700
STARLINK-1089           
1 44967U 20001BF  21357.43973108 -.00001296  00000+0 -68103-4 0  9997
2 44967  53.0562   7.6110 0001524  56.2068 303.9066 15.06396368108718
STARLINK-1090           
1 44968U 20001BG  21357.50238721  .00000325  00000+0  40723-4 0  9999
2 44968  53.0559   7.3217 0001548  67.7539 292.3614 15.06402944108725
STARLINK-1092           
1 44969U 20001BH  21357.49502386  .00001744  00000+0  13598-3 0  9994
2 44969  53.0558   7.3548 0001439  65.4521 294.6617 15.06395999108715
STARLINK-1093           
1 44970U 20001BJ  21357.53925532  .00000498  00000+0  52350-4 0  9998
2 44970  53.0544   7.1663 0001462  67.5831 292.5313 15.06387823108718
STARLINK-1107           
1 44972U 20001BL  21357.44341430  .00001690  00000+0  13233-3 0  9990
2 44972  53.0543   7.5770 0001638  61.4979 298.6175 15.06400244108719
STARLINK-1115           
1 44973U 20001BM  21357.35495298  .00000459  00000+0  49716-4 0  9991
2 44973  53.0565   7.9902 0001383  69.9695 290.1443 15.06395769108697
TJS-5                   
1 44978U 20002A   21357.87680437 -.00000324  00000+0  00000+0 0  9995
2 44978   0.0807 300.0206 0004709 246.8777 328.9001  1.00270689  7284
JILIN-01 KUANFU 01      
1 45016U 20003A   21357.75262140 -.00005657  00000+0 -35124-3 0  9998
2 45016  97.5014  56.7347 0002179 119.9447  27.9342 15.09339184108144
NUSAT-7 (SOPHIE)        
1 45017U 20003B   21357.73545981  .00007304  00000+0  24135-3 0  9993
2 45017  97.2424  58.5514 0011269 268.9800 244.2528 15.31608879108304
NUSAT-8 (MARIE)         
1 45018U 20003C   21357.75041939  .00008552  00000+0  26477-3 0  9997
2 45018  97.2551  59.3171 0010055 271.3896 237.1156 15.33657074108300
TIANQI-5                
1 45019U 20003D   21357.73976889  .00004696  00000+0  16662-3 0  9997
2 45019  97.2475  57.6312 0011025 283.3120 225.3821 15.29488673108215
YINHE-1                 
1 45024U 20004A   21357.84645060  .00000299  00000+0  40218-4 0  9990
2 45024  86.3957 128.3230 0013521 325.8195  34.2165 14.75366354104414
GSAT-30                 
1 45026U 20005A   21357.54650126 -.00000147  00000+0  00000+0 0  9992
2 45026   0.0347 256.8863 0001336 232.7557 242.4140  1.00271531  7100
EUTELSAT KONNECT        
1 45027U 20005B   21357.25614508  .00000068  00000+0  00000+0 0  9996
2 45027   0.0588  97.3579 0000174 198.9151 255.1556  1.00271652  7928
STPSAT-4                
1 45043U 98067QY  21357.51825191  .00030273  00000+0  39013-3 0  9999
2 45043  51.6405 108.4042 0004537 261.2455  98.8024 15.58742744107941
STARLINK-1132           
1 45044U 20006A   21357.19645108  .00009570  00000+0  66038-3 0  9993
2 45044  53.0550 328.6997 0001862  60.1477 299.9697 15.06406120105005
